{"type": "FeatureCollection", "features": [ {"type": "Feature", "properties": {"norad_id": 41828, "name": "FENGYUN 1C DEB", "group": "fengyun-1c-debris", "lat": 78.88424039643054, "lon": -12.663695769506594, "alt_km": 708.1469890373701, "timestamp": "2025-12-12T05:47:29.061547+00:00", "meta": {"OBJECT_NAME": "FENGYUN 1C DEB", "OBJECT_ID": "1999-025EYF", "EPOCH": "2025-12-11T21:04:29.179200", "MEAN_MOTION": 14.51650487, "ECCENTRICITY": 0.00389732, "INCLINATION": 98.9213, "RA_OF_ASC_NODE": 113.8707, "ARG_OF_PERICENTER": 178.205, "MEAN_ANOMALY": 181.9291, "EPHEMERIS_TYPE": 0, "CLASSIFICATION_TYPE": "U", "NORAD_CAT_ID": 41828, "ELEMENT_SET_NO": 999, "REV_AT_EPOCH": 47451, "BSTAR": 0.0065151181, "MEAN_MOTION_DOT": 0.00026433, "MEAN_MOTION_DDOT": 0}, "tle": {"line1": "1 41828U 99025EYF 25345.87811550  .00026433  00000+0  65151-2 0  9999", "line2": "2 41828  98.9213 113.8707 0038973 178.2050 181.9291 14.51650487474510"}}, "geometry": {"type": "Point", "coordinates": [-12.663695769506594, 78.88424039643054]}}, {"type": "Feature", "properties": {"norad_id": 41829, "name": "FENGYUN 1C DEB", "group": "fengyun-1c-debris", "lat": 36.28300719034148, "lon": 48.96813090423431, "alt_km": 845.9556134764434, "timestamp": "2025-12-12T05:47:29.061557+00:00", "meta": {"OBJECT_NAME": "FENGYUN 1C DEB", "OBJECT_ID": "1999-025EYG", "EPOCH": "2025-12-11T04:20:31.103520", "MEAN_MOTION": 14.25103273, "ECCENTRICITY": 0.00563542, "INCLINATION": 98.7438, "RA_OF_ASC_NODE": 54.399, "ARG_OF_PERICENTER": 223.4086, "MEAN_ANOMALY": 136.2649, "EPHEMERIS_TYPE": 0, "CLASSIFICATION_TYPE": "U", "NORAD_CAT_ID": 41829, "ELEMENT_SET_NO": 999, "REV_AT_EPOCH": 47285, "BSTAR": 0.0022979811, "MEAN_MOTION_DOT": 5.438e-05, "MEAN_MOTION_DDOT": 0}, "tle": {"line1": "1 41829U 99025EYG 25345.18091555  .00005438  00000+0  22980-2 0  9994", "line2": "2 41829  98.7438  54.3990 0056354 223.4086 136.2649 14.25103273472858"}}, "geometry": {"type": "Point", "coordinates": [48.96813090423431, 36.28300719034148]}}, {"type": "Feature", "properties": {"norad_id": 41830, "name": "FENGYUN 1C DEB", "group": "fengyun-1c-debris", "lat": -33.43698340995835, "lon": -127.61560242846345, "alt_km": 770.6799832578017, "timestamp": "2025-12-12T05:47:29.061567+00:00", "meta": {"OBJECT_NAME": "FENGYUN 1C DEB", "OBJECT_ID": "1999-025EYH", "EPOCH": "2025-12-10T03:58:08.847552", "MEAN_MOTION": 14.26414557, "ECCENTRICITY": 0.00545762, "INCLINATION": 98.7522, "RA_OF_ASC_NODE": 56.1482, "ARG_OF_PERICENTER": 224.0147, "MEAN_ANOMALY": 135.6681, "EPHEMERIS_TYPE": 0, "CLASSIFICATION_TYPE": "U", "NORAD_CAT_ID": 41830, "ELEMENT_SET_NO": 999, "REV_AT_EPOCH": 47237, "BSTAR": 0.0025035073, "MEAN_MOTION_DOT": 6.077e-05, "MEAN_MOTION_DDOT": 0}, "tle": {"line1": "1 41830U 99025EYH 25344.16538018  .00006077  00000+0  25035-2 0  9997", "line2": "2 41830  98.7522  56.1482 0054576 224.0147 135.6681 14.26414557472376"}}, "geometry": {"type": "Point", "coordinates": [-127.61560242846345, -33.43698340995835]}}, {"type": "Feature", "properties": {"norad_id": 41831, "name": "FENGYUN 1C DEB", "group": "fengyun-1c-debris", "lat": 42.6161114284841, "lon": 44.96854888828136, "alt_km": 846.7640431971786, "timestamp": "2025-12-12T05:47:29.061577+00:00", "meta": {"OBJECT_NAME": "FENGYUN 1C DEB", "OBJECT_ID": "1999-025EYJ", "EPOCH": "2025-12-11T04:18:05.588640", "MEAN_MOTION": 14.24547415, "ECCENTRICITY": 0.00561177, "INCLINATION": 98.7343, "RA_OF_ASC_NODE": 52.044, "ARG_OF_PERICENTER": 225.6158, "MEAN_ANOMALY": 134.0419, "EPHEMERIS_TYPE": 0, "CLASSIFICATION_TYPE": "U", "NORAD_CAT_ID": 41831, "ELEMENT_SET_NO": 999, "REV_AT_EPOCH": 47237, "BSTAR": 0.0024645941, "MEAN_MOTION_DOT": 5.772e-05, "MEAN_MOTION_DDOT": 0}, "tle": {"line1": "1 41831U 99025EYJ 25345.17923135  .00005772  00000+0  24646-2 0  9996", "line2": "2 41831  98.7343  52.0440 0056117 225.6158 134.0419 14.24547415472379"}}, "geometry": {"type": "Point", "coordinates": [44.96854888828136, 42.6161114284841]}}, {"type": "Feature", "properties": {"norad_id": 41832, "name": "FENGYUN 1C DEB", "group": "fengyun-1c-debris", "lat": 78.09519208555781, "lon": -82.9603940896951, "alt_km": 828.6434440442381, "timestamp": "2025-12-12T05:47:29.061587+00:00", "meta": {"OBJECT_NAME": "FENGYUN 1C DEB", "OBJECT_ID": "1999-025EYK", "EPOCH": "2025-12-11T04:02:11.824224", "MEAN_MOTION": 14.24216808, "ECCENTRICITY": 0.00554619, "INCLINATION": 98.7277, "RA_OF_ASC_NODE": 49.2007, "ARG_OF_PERICENTER": 230.08, "MEAN_ANOMALY": 129.5498, "EPHEMERIS_TYPE": 0, "CLASSIFICATION_TYPE": "U", "NORAD_CAT_ID": 41832, "ELEMENT_SET_NO": 999, "REV_AT_EPOCH": 47328, "BSTAR": 0.0024844712, "MEAN_MOTION_DOT": 5.779e-05, "MEAN_MOTION_DDOT": 0}, "tle": {"line1": "1 41832U 99025EYK 25345.16819241  .00005779  00000+0  24845-2 0  9996", "line2": "2 41832  98.7277  49.2007 0055461 230.0800 129.5498 14.24216808473284"}}, "geometry": {"type": "Point", "coordinates": [-82.9603940896951, 78.09519208555781]}}, {"type": "Feature", "properties": {"norad_id": 41833, "name": "FENGYUN 1C DEB", "group": "fengyun-1c-debris", "lat": -54.91383291182329, "lon": 68.46954112228634, "alt_km": 805.5243101507531, "timestamp": "2025-12-12T05:47:29.061597+00:00", "meta": {"OBJECT_NAME": "FENGYUN 1C DEB", "OBJECT_ID": "1999-025EYL", "EPOCH": "2025-12-11T23:19:01.211520", "MEAN_MOTION": 14.25800353, "ECCENTRICITY": 0.00543332, "INCLINATION": 98.7476, "RA_OF_ASC_NODE": 55.5389, "ARG_OF_PERICENTER": 225.3834, "MEAN_ANOMALY": 134.2907, "EPHEMERIS_TYPE": 0, "CLASSIFICATION_TYPE": "U", "NORAD_CAT_ID": 41833, "ELEMENT_SET_NO": 999, "REV_AT_EPOCH": 47353, "BSTAR": 0.0027447588, "MEAN_MOTION_DOT": 6.587e-05, "MEAN_MOTION_DDOT": 0}, "tle": {"line1": "1 41833U 99025EYL 25345.97154180  .00006587  00000+0  27448-2 0  9990", "line2": "2 41833  98.7476  55.5389 0054333 225.3834 134.2907 14.25800353473531"}}, "geometry": {"type": "Point", "coordinates": [68.46954112228634, -54.91383291182329]}}, {"type": "Feature", "properties": {"norad_id": 43213, "name": "FENGYUN 1C DEB", "group": "fengyun-1c-debris", "lat": 29.436224860804423, "lon": -124.37655406651874, "alt_km": 802.9955179716262, "timestamp": "2025-12-12T05:47:29.061607+00:00", "meta": {"OBJECT_NAME": "FENGYUN 1C DEB", "OBJECT_ID": "1999-025EYM", "EPOCH": "2025-12-11T15:35:29.120640", "MEAN_MOTION": 14.2384299, "ECCENTRICITY": 0.00550482, "INCLINATION": 98.7346, "RA_OF_ASC_NODE": 50.0589, "ARG_OF_PERICENTER": 230.6376, "MEAN_ANOMALY": 128.9918, "EPHEMERIS_TYPE": 0, "CLASSIFICATION_TYPE": "U", "NORAD_CAT_ID": 43213, "ELEMENT_SET_NO": 999, "REV_AT_EPOCH": 40357, "BSTAR": 0.0023267016, "MEAN_MOTION_DOT": 5.369e-05, "MEAN_MOTION_DDOT": 0}, "tle": {"line1": "1 43213U 99025EYM 25345.64964260  .00005369  00000+0  23267-2 0  9998", "line2": "2 43213  98.7346  50.0589 0055048 230.6376 128.9918 14.23842990403577"}}, "geometry": {"type": "Point", "coordinates": [-124.37655406651874, 29.436224860804423]}}, {"type": "Feature", "properties": {"norad_id": 43214, "name": "FENGYUN 1C DEB", "group": "fengyun-1c-debris", "lat": 73.02181147612984, "lon": 20.717485835798012, "alt_km": 839.6496505418972, "timestamp": "2025-12-12T05:47:29.061617+00:00", "meta": {"OBJECT_NAME": "FENGYUN 1C DEB", "OBJECT_ID": "1999-025EYN", "EPOCH": "2025-12-09T15:02:41.790048", "MEAN_MOTION": 14.24095446, "ECCENTRICITY": 0.0055233, "INCLINATION": 98.7354, "RA_OF_ASC_NODE": 48.3572, "ARG_OF_PERICENTER": 235.7177, "MEAN_ANOMALY": 123.8765, "EPHEMERIS_TYPE": 0, "CLASSIFICATION_TYPE": "U", "NORAD_CAT_ID": 43214, "ELEMENT_SET_NO": 999, "REV_AT_EPOCH": 40359, "BSTAR": 0.0025088, "MEAN_MOTION_DOT": 5.822e-05, "MEAN_MOTION_DDOT": 0}, "tle": {"line1": "1 43214U 99025EYN 25343.62687257  .00005822  00000+0  25088-2 0  9990", "line2": "2 43214  98.7354  48.3572 0055233 235.7177 123.8765 14.24095446403593"}}, "geometry": {"type": "Point", "coordinates": [20.717485835798012, 73.02181147612984]}}, {"type": "Feature", "properties": {"norad_id": 43358, "name": "FENGYUN 1C DEB", "group": "fengyun-1c-debris", "lat": -32.23485340941367, "lon": 111.86607672567924, "alt_km": 1258.7227514355463, "timestamp": "2025-12-12T05:47:29.061627+00:00", "meta": {"OBJECT_NAME": "FENGYUN 1C DEB", "OBJECT_ID": "1999-025EYP", "EPOCH": "2025-12-11T21:00:18.893952", "MEAN_MOTION": 13.40364302, "ECCENTRICITY": 0.03677041, "INCLINATION": 98.6862, "RA_OF_ASC_NODE": 106.0196, "ARG_OF_PERICENTER": 204.8501, "MEAN_ANOMALY": 153.4527, "EPHEMERIS_TYPE": 0, "CLASSIFICATION_TYPE": "U", "NORAD_CAT_ID": 43358, "ELEMENT_SET_NO": 999, "REV_AT_EPOCH": 53719, "BSTAR": 0.0034578887, "MEAN_MOTION_DOT": 2.777e-05, "MEAN_MOTION_DDOT": 0}, "tle": {"line1": "1 43358U 99025EYP 25345.87521868  .00002777  00000+0  34579-2 0  9994", "line2": "2 43358  98.6862 106.0196 0367704 204.8501 153.4527 13.40364302537192"}}, "geometry": {"type": "Point", "coordinates": [111.86607672567924, -32.23485340941367]}}, {"type": "Feature", "properties": {"norad_id": 43359, "name": "FENGYUN 1C DEB", "group": "fengyun-1c-debris", "lat": -22.20101290035232, "lon": 69.94525659106944, "alt_km": 778.6029142631651, "timestamp": "2025-12-12T05:47:29.061638+00:00", "meta": {"OBJECT_NAME": "FENGYUN 1C DEB", "OBJECT_ID": "1999-025EYQ", "EPOCH": "2025-12-11T04:35:07.695456", "MEAN_MOTION": 14.23138507, "ECCENTRICITY": 0.00735786, "INCLINATION": 99.0537, "RA_OF_ASC_NODE": 65.1346, "ARG_OF_PERICENTER": 19.4154, "MEAN_ANOMALY": 340.98, "EPHEMERIS_TYPE": 0, "CLASSIFICATION_TYPE": "U", "NORAD_CAT_ID": 43359, "ELEMENT_SET_NO": 999, "REV_AT_EPOCH": 47727, "BSTAR": 0.0028664411, "MEAN_MOTION_DOT": 6.614e-05, "MEAN_MOTION_DDOT": 0}, "tle": {"line1": "1 43359U 99025EYQ 25345.19106129  .00006614  00000+0  28664-2 0  9991", "line2": "2 43359  99.0537  65.1346 0073578  19.4154 340.9800 14.23138507477273"}}, "geometry": {"type": "Point", "coordinates": [69.94525659106944, -22.20101290035232]}}]}